NUSAT-1 (FRESCO)        
1 41557U 16033B   22194.13616993  .00010616  00000+0  31271-3 0  9991
2 41557  97.3894 291.8859 0009028 286.3298 191.1339 15.35185798341325
BEESAT-4                
1 41619U 16040W   22193.66390001  .00016228  00000+0  53121-3 0  9997
2 41619  97.2151 243.6259 0009993  38.1224 322.0723 15.31705953324589
CAS-2T & KS-1Q          
1 41847U 16066G   22193.73026506  .00001320  00000+0  20584-3 0  9996
2 41847  98.5498 258.3731 0364665 134.1712 229.0069 14.38629511297980
NAYIF-1 (EO-88)         
1 42017U 17008BX  22194.18411194  .00018570  00000+0  54276-3 0  9994
2 42017  97.2681 259.9337 0006307 141.5728 218.5966 15.35316103301022
ZHUHAI-1 02 (CAS-4B)    
1 42759U 17034B   22194.14233581  .00001949  00000+0  12422-3 0  9993
2 42759  43.0159 191.0868 0007744  86.9852 359.1653 15.12045469280249
ZHUHAI-1 01 (CAS-4A)    
1 42761U 17034D   22194.17861203  .00002217  00000+0  13917-3 0  9996
2 42761  43.0154 189.6551 0008010  90.8147   6.2488 15.12133294280258
MAX VALIER SAT          
1 42778U 17036P   22193.68076754  .00009130  00000+0  34321-3 0  9993
2 42778  97.2033 233.9176 0009266 228.3358 131.7089 15.27337117280757
RADFXSAT (FOX-1B)       
1 43017U 17073E   22193.70084986  .00004397  00000+0  32954-3 0  9990
2 43017  97.6730  86.8604 0249755 105.0639 257.8355 14.81526080250857
FOX-1D (AO-92)          
1 43137U 18004AC  22194.00139867  .00012122  00000+0  42231-3 0  9995
2 43137  97.3686 268.9327 0005883 268.8018  91.2549 15.29790900250248
DIWATA-2B               
1 43678U 18084H   22194.19933179  .00000849  00000+0  89045-4 0  9999
2 43678  97.9736 327.7710 0009458 192.6860 167.4155 14.92205708201691
ES'HAIL 2               
1 43700U 18090A   22193.76702788  .00000144  00000+0  00000+0 0  9991
2 43700   0.0163 356.0090 0001491 137.1366  99.3785  1.00270732 13288
FOX-1CLIFF (AO-95)      
1 43770U 18099N   22193.73150077  .00003515  00000+0  31350-3 0  9993
2 43770  97.6200 259.4248 0014146 183.4555 176.6571 14.96535412196793
ITASAT 1                
1 43786U 18099AE  22193.72241760  .00002367  00000+0  21205-3 0  9991
2 43786  97.6220 260.3487 0015040 177.9790 182.1495 14.96665492196835
JY1SAT (JO-97)          
1 43803U 18099AX  22194.13270411  .00003672  00000+0  32186-3 0  9992
2 43803  97.6186 260.5102 0015059 174.0470 186.0934 14.97186230196914
UWE-4                   
1 43880U 18111E   22194.18056727  .00002127  00000+0  18361-3 0  9992
2 43880  97.6674 100.0447 0010298 231.9701 128.0593 14.98275393191553
NEXUS (FO-99)           
1 43937U 19003F   22193.33364608  .00014214  00000+0  47037-3 0  9994
2 43937  97.1286 225.7207 0022122  68.1995 292.1598 15.31189378193783
PSAT2 (NO-104)          
1 44354U 19036R   22193.78283282  .00052569 -59101-5  44395-3 0  9993
2 44354  28.5274   2.3734 0220381 256.9446 100.6468 15.42481574168596
JAISAT-1                
1 44419U 19038F   22193.88997053  .00010464  00000+0  52025-3 0  9990
2 44419  97.6363 164.2237 0020662  47.8076 312.4907 15.17643339166912
DUCHIFAT-3              
1 44854U 19089C   22193.64950361  .00002938  00000+0  23057-3 0  9994
2 44854  36.9684 310.9590 0007759  56.9746 303.1766 15.01212501141724
CAS-6 (TO-108)          
1 44881U 19093C   22194.17223045  .00000455  00000+0  64310-4 0  9990
2 44881  97.8921 273.0126 0016377 101.2143 259.0930 14.81752730138581
RS-44 & BREEZE-KM R/B   
1 44909U 19096E   22193.36523598  .00000034  00000+0  98312-4 0  9992
2 44909  82.5198 213.7251 0216180 261.4554  96.1998 12.79713906118699
ORBITAL FACTORY 2 (OF-2)
1 45113U 19071C   22193.57858987  .00030767  00000+0  61469-3 0  9997
2 45113  51.6390 295.6459 0009581 269.2473  90.7417 15.46495928137266
HUSKYSAT-1 (HO-107)     
1 45119U 19071J   22193.66499184  .00026372  00000+0  54762-3 0  9998
2 45119  51.6389 295.4459 0009246 265.6422  94.3509 15.45455272137269
BY70-2                  
1 45857U 20042B   22194.05102133  .00005620  00000+0  74756-3 0  9994
2 45857  97.9548 270.6499 0011189  43.3377 316.8760 14.80070626109248
SALSAT                  
1 46495U 20068K   22193.83462533  .00002165  00000+0  15829-3 0  9996
2 46495  97.7311 135.1453 0016174 185.5122 174.5928 15.04603298 98004
BY70-3                  
1 46839U 20079N   22194.19384314  .00019732  00000+0  45041-3 0  9997
2 46839  97.1977 265.9640 0004537 216.6673 221.1171 15.42902610 94215
RADFXSAT-2 (AO-109)     
1 47311U 21002C   22192.78577801  .00006201  00000+0  25159-3 0  9993
2 47311  60.6857 270.6287 0020945 356.3559   3.7374 15.25595301 82176
UVSQ-SAT                
1 47438U 21006AB  22194.15724848  .00006528  00000+0  34328-3 0  9995
2 47438  97.4360 252.6411 0012068 177.4633 182.6663 15.15935281 81175
DIY-1 (ARDUIQUBE)       
1 47963U 21022AH  22194.19182922  .00018635  00000+0  10206-2 0  9991
2 47963  97.5310  95.2605 0018621  48.5619 311.7208 15.14119965 70847
XW-3 (CAS-9)            
1 50466U 21131B   22194.18632553  .00000143  00000+0  61360-4 0  9997
2 50466  98.5803 271.4279 0005790  79.4079 280.7760 14.38507321 28616
TEVEL-3                 
1 50988U 22002E   22194.06529858  .00005901  00000+0  32208-3 0  9999
2 50988  97.4802 260.6205 0008745 345.7599  98.2703 15.14686880 27295
TEVEL-8                 
1 50989U 22002F   22194.07158521  .00005788  00000+0  31648-3 0  9996
2 50989  97.4820 260.6479 0008874 344.4590 101.2233 15.14634141 27295
TEVEL-5                 
1 50998U 22002Q   22194.13421250  .00005925  00000+0  31894-3 0  9991
2 50998  97.4797 260.7944 0010173 338.5802  51.7355 15.15167650 27315
TEVEL-6                 
1 50999U 22002R   22194.13379074  .00005901  00000+0  31765-3 0  9999
2 50999  97.4793 260.7922 0010036 338.5083  51.7914 15.15172165 27315
TEVEL-1                 
1 51013U 22002AF  22194.00884573  .00005782  00000+0  31588-3 0  9998
2 51013  97.4806 260.5481 0008746 345.5608 136.6149 15.14660685 27289
TEVEL-7                 
1 51062U 22002CG  22194.07347041  .00005773  00000+0  31572-3 0  9996
2 51062  97.4817 260.6381 0008812 343.9292 104.0574 15.14624345 27295
TEVEL-4                 
1 51063U 22002CH  22194.13930760  .00005749  00000+0  31450-3 0  9998
2 51063  97.4818 260.7003 0008672 343.6622  99.8145 15.14616821 27304
TEVEL-2                 
1 51069U 22002CP  22194.06651922  .00005887  00000+0  32138-3 0  9993
2 51069  97.4804 260.6119 0008748 345.4239  99.1156 15.14679263 27292
